1 29155U 06018A   11030.44527260 -.00000261  00000-0  10000-3 0  4632
2 29155 000.4055 078.6682 0002389 337.4249 158.6654 01.00267965 17198